IXPE                    
1 49954U 21121A   24078.91667824  .00006087  00000+0  44729-3 0  9991
2 49954   0.2304 342.9238 0009892  21.0239 165.5156 14.96882904124342
